STARLINK-37109          
1 68666U 26077E   26112.54762427  .00043681  00000+0  29166-3 0  9991
2 68666  97.2839 343.5933 0000886 107.8947 252.2414 15.75235660  1810
